IRIDIUM 166             
1 43570U 18061B   25060.54354604 -.00000018  00000+0 -13442-4 0  9997
2 43570  86.3919 254.2106 0001944  79.0039 281.1376 14.34217382345659
IRIDIUM 158             
1 43571U 18061C   25060.58160193 -.00000014  00000+0 -12213-4 0  9991
2 43571  86.3918 254.2043 0002160  90.0617 270.0826 14.34217430345623
IRIDIUM 165             
1 43572U 18061D   25060.60697145 -.00000021  00000+0 -14656-4 0  9998
2 43572  86.3920 254.2310 0001750  87.9234 272.2162 14.34217424345651
IRIDIUM 155             
1 43573U 18061E   25060.56891625  .00000027  00000+0  27223-5 0  9992
2 43573  86.3912 254.1394 0002316  85.0149 275.1311 14.34218046345612
IRIDIUM 154             
1 43574U 18061F   25060.54988838 -.00000017  00000+0 -13073-4 0  9992
2 43574  86.3921 254.2577 0001873  89.4792 270.6619 14.34217408345663
IRIDIUM 163             
1 43575U 18061G   25060.60062908  .00000011  00000+0 -29705-5 0  9994
2 43575  86.3917 254.1666 0002048  92.8523 267.2907 14.34217606345642
IRIDIUM 156             
1 43576U 18061H   25060.57525914  .00000018  00000+0 -80497-6 0  9995
2 43576  86.3915 254.1841 0002287  81.0862 279.0593 14.34217819345623
IRIDIUM 164             
1 43577U 18061J   25060.55623025 -.00000015  00000+0 -12257-4 0  9991
2 43577  86.3920 254.2249 0001716  88.1558 271.9834 14.34217506345676
